{
  "norad_id": 66154,
  "name": "STARLINK-34625",
  "history": [
    {
      "epoch": "2026-03-28T22:26:11.700960Z",
      "apogee_km": 476.31844230988463,
      "perigee_km": 474.18292670739265,
      "latitude_deg": 1.4484098874693447e-05,
      "longitude_deg": 170.62058310443453,
      "height_km": 475.339105973159,
      "semi_major_axis_km": 6853.387684508639,
      "eccentricity": 0.0001558,
      "inclination_deg": 53.1611,
      "raan_deg": 333.5175,
      "arg_perigee_deg": 40.6488,
      "mean_anomaly_deg": 319.4629,
      "mean_motion_rev_day": 15.30188072
    },
    {
      "epoch": "2026-03-28T22:26:11.701824Z",
      "apogee_km": 476.31857937763925,
      "perigee_km": 474.18278963963894,
      "latitude_deg": 1.328388195035216e-05,
      "longitude_deg": 170.62067860040085,
      "height_km": 475.3390019792191,
      "semi_major_axis_km": 6853.387684508639,
      "eccentricity": 0.00015582,
      "inclination_deg": 53.1611,
      "raan_deg": 333.5176,
      "arg_perigee_deg": 40.6488,
      "mean_anomaly_deg": 319.4629,
      "mean_motion_rev_day": 15.30188072
    },
    {
      "epoch": "2026-03-30T01:05:05.733600Z",
      "apogee_km": 475.88651144808864,
      "perigee_km": 474.5336607332947,
      "latitude_deg": 1.9125512397954013e-05,
      "longitude_deg": 124.64324256317231,
      "height_km": 476.3283538391669,
      "semi_major_axis_km": 6853.347086090692,
      "eccentricity": 9.87e-05,
      "inclination_deg": 53.1609,
      "raan_deg": 328.3597,
      "arg_perigee_deg": 108.9486,
      "mean_anomaly_deg": 251.1622,
      "mean_motion_rev_day": 15.30201669
    }
  ]
}